STARLINK-30438          
1 58035U 23156H   26068.25832828 -.00000398  00000+0 -13244-5 0  9998
2 58035  53.1606  80.1118 0001159  78.5335 281.5796 15.30193853136208
KUIPER-00222            
1 67782U 26030U   26068.67636257  .00055223  00000+0  17317-2 0  9992
2 67782  51.8817 219.7147 0012800  40.1845 320.0084 15.32445377  5087
