[{"OBJECT_NAME":"STARLINK-30438","OBJECT_ID":"2023-156H","EPOCH":"2026-03-09T06:11:59.563392","MEAN_MOTION":15.30193853,"ECCENTRICITY":0.00011599,"INCLINATION":53.1606,"RA_OF_ASC_NODE":80.1118,"ARG_OF_PERICENTER":78.5335,"MEAN_ANOMALY":281.5796,"EPHEMERIS_TYPE":0,"CLASSIFICATION_TYPE":"U","NORAD_CAT_ID":58035,"ELEMENT_SET_NO":999,"REV_AT_EPOCH":13620,"BSTAR":-1.324431e-6,"MEAN_MOTION_DOT":-3.98e-6,"MEAN_MOTION_DDOT":0},{"OBJECT_NAME":"KUIPER-00222","OBJECT_ID":"2026-030U","EPOCH":"2026-03-09T16:13:57.726048","MEAN_MOTION":15.32445377,"ECCENTRICITY":0.00128002,"INCLINATION":51.8817,"RA_OF_ASC_NODE":219.7147,"ARG_OF_PERICENTER":40.1845,"MEAN_ANOMALY":320.0084,"EPHEMERIS_TYPE":0,"CLASSIFICATION_TYPE":"U","NORAD_CAT_ID":67782,"ELEMENT_SET_NO":999,"REV_AT_EPOCH":508,"BSTAR":0.0017317201,"MEAN_MOTION_DOT":0.00055223,"MEAN_MOTION_DDOT":0}]
